{
  "links" : {
    "next" : "https://api.nasa.gov/neo/rest/v1/feed?start_date=2012-03-16&end_date=2012-03-16&detailed=true&api_key=t0TVs3DtDT2H8Oy2Zy8m2eVrNsAVKAexjcZXUckd",
    "prev" : "https://api.nasa.gov/neo/rest/v1/feed?start_date=2012-03-14&end_date=2012-03-14&detailed=true&api_key=t0TVs3DtDT2H8Oy2Zy8m2eVrNsAVKAexjcZXUckd",
    "self" : "https://api.nasa.gov/neo/rest/v1/feed?start_date=2012-03-15&end_date=2012-03-15&detailed=true&api_key=t0TVs3DtDT2H8Oy2Zy8m2eVrNsAVKAexjcZXUckd"
  },
  "element_count" : 16,
  "near_earth_objects" : {
    "2012-03-15" : [ {
      "links" : {
        "self" : "https://api.nasa.gov/neo/rest/v1/neo/3601282?api_key=t0TVs3DtDT2H8Oy2Zy8m2eVrNsAVKAexjcZXUckd"
      },
      "neo_reference_id" : "3601282",
      "name" : "(2012 EN5)",
      "nasa_jpl_url" : "http://ssd.jpl.nasa.gov/sbdb.cgi?sstr=3601282",
      "absolute_magnitude_h" : 27.3,
      "estimated_diameter" : {
        "kilometers" : {
          "estimated_diameter_min" : 0.0092162655,
          "estimated_diameter_max" : 0.0206081961
        },
        "meters" : {
          "estimated_diameter_min" : 9.216265485,
          "estimated_diameter_max" : 20.6081961232
        },
        "miles" : {
          "estimated_diameter_min" : 0.0057267201,
          "estimated_diameter_max" : 0.0128053354
        },
        "feet" : {
          "estimated_diameter_min" : 30.2370924539,
          "estimated_diameter_max" : 67.6121941689
        }
      },
      "is_potentially_hazardous_asteroid" : false,
      "close_approach_data" : [ {
        "close_approach_date" : "2012-03-15",
        "epoch_date_close_approach" : 1331794800000,
        "relative_velocity" : {
          "kilometers_per_second" : "9.8984116973",
          "kilometers_per_hour" : "35634.2821102526",
          "miles_per_hour" : "22141.7571256733"
        },
        "miss_distance" : {
          "astronomical" : "0.0036842283",
          "lunar" : "1.433164835",
          "kilometers" : "551152.6875",
          "miles" : "342470.40625"
        },
        "orbiting_body" : "Earth"
      } ],
      "orbital_data" : {
        "orbit_id" : "6",
        "orbit_determination_date" : "2017-04-06 08:50:34",
        "orbit_uncertainty" : "6",
        "minimum_orbit_intersection" : ".0012049",
        "jupiter_tisserand_invariant" : "5.912",
        "epoch_osculation" : "2458000.5",
        "eccentricity" : ".3039591992982212",
        "semi_major_axis" : "1.026686461928289",
        "inclination" : "3.941081557159352",
        "ascending_node_longitude" : "174.4790040735792",
        "orbital_period" : "379.9751367164807",
        "perihelion_distance" : ".7146156670302427",
        "perihelion_argument" : "102.7670319313802",
        "aphelion_distance" : "1.338757256826335",
        "perihelion_time" : "2457973.645694358216",
        "mean_anomaly" : "25.4425858349141",
        "mean_motion" : ".9474304111340178",
        "equinox" : "J2000"
      }
    }, {
      "links" : {
        "self" : "https://api.nasa.gov/neo/rest/v1/neo/3601338?api_key=t0TVs3DtDT2H8Oy2Zy8m2eVrNsAVKAexjcZXUckd"
      },
      "neo_reference_id" : "3601338",
      "name" : "(2012 EQ10)",
      "nasa_jpl_url" : "http://ssd.jpl.nasa.gov/sbdb.cgi?sstr=3601338",
      "absolute_magnitude_h" : 25.9,
      "estimated_diameter" : {
        "kilometers" : {
          "estimated_diameter_min" : 0.0175612318,
          "estimated_diameter_max" : 0.0392681082
        },
        "meters" : {
          "estimated_diameter_min" : 17.561231848,
          "estimated_diameter_max" : 39.2681081809
        },
        "miles" : {
          "estimated_diameter_min" : 0.0109120402,
          "estimated_diameter_max" : 0.0244000636
        },
        "feet" : {
          "estimated_diameter_min" : 57.6155918963,
          "estimated_diameter_max" : 128.8323800441
        }
      },
      "is_potentially_hazardous_asteroid" : false,
      "close_approach_data" : [ {
        "close_approach_date" : "2012-03-15",
        "epoch_date_close_approach" : 1331794800000,
        "relative_velocity" : {
          "kilometers_per_second" : "7.9763060214",
          "kilometers_per_hour" : "28714.7016768931",
          "miles_per_hour" : "17842.1989391784"
        },
        "miss_distance" : {
          "astronomical" : "0.0257263667",
          "lunar" : "10.0075569153",
          "kilometers" : "3848609.75",
          "miles" : "2391415.25"
        },
        "orbiting_body" : "Earth"
      } ],
      "orbital_data" : {
        "orbit_id" : "8",
        "orbit_determination_date" : "2017-04-06 08:50:32",
        "orbit_uncertainty" : "7",
        "minimum_orbit_intersection" : ".0265857",
        "jupiter_tisserand_invariant" : "4.679",
        "epoch_osculation" : "2458000.5",
        "eccentricity" : ".2911009638131408",
        "semi_major_axis" : "1.403115603208155",
        "inclination" : "12.31034290943348",
        "ascending_node_longitude" : "177.5165655330194",
        "orbital_period" : "607.069771559007",
        "perihelion_distance" : ".9946672987730049",
        "perihelion_argument" : "331.4140509537646",
        "aphelion_distance" : "1.811563907643306",
        "perihelion_time" : "2457802.460615786765",
        "mean_anomaly" : "117.4398424314147",
        "mean_motion" : ".5930125611023083",
        "equinox" : "J2000"
      }
    }, {
      "links" : {
        "self" : "https://api.nasa.gov/neo/rest/v1/neo/3667136?api_key=t0TVs3DtDT2H8Oy2Zy8m2eVrNsAVKAexjcZXUckd"
      },
      "neo_reference_id" : "3667136",
      "name" : "(2014 GF45)",
      "nasa_jpl_url" : "http://ssd.jpl.nasa.gov/sbdb.cgi?sstr=3667136",
      "absolute_magnitude_h" : 23.3,
      "estimated_diameter" : {
        "kilometers" : {
          "estimated_diameter_min" : 0.058150704,
          "estimated_diameter_max" : 0.130028927
        },
        "meters" : {
          "estimated_diameter_min" : 58.1507039646,
          "estimated_diameter_max" : 130.0289270043
        },
        "miles" : {
          "estimated_diameter_min" : 0.0361331611,
          "estimated_diameter_max" : 0.0807962044
        },
        "feet" : {
          "estimated_diameter_min" : 190.7831555951,
          "estimated_diameter_max" : 426.6041048727
        }
      },
      "is_potentially_hazardous_asteroid" : false,
      "close_approach_data" : [ {
        "close_approach_date" : "2012-03-15",
        "epoch_date_close_approach" : 1331794800000,
        "relative_velocity" : {
          "kilometers_per_second" : "9.3609499231",
          "kilometers_per_hour" : "33699.4197229998",
          "miles_per_hour" : "20939.5088828828"
        },
        "miss_distance" : {
          "astronomical" : "0.2475605802",
          "lunar" : "96.3010635376",
          "kilometers" : "37034536",
          "miles" : "23012194"
        },
        "orbiting_body" : "Earth"
      } ],
      "orbital_data" : {
        "orbit_id" : "19",
        "orbit_determination_date" : "2017-04-06 08:41:39",
        "orbit_uncertainty" : "2",
        "minimum_orbit_intersection" : ".191699",
        "jupiter_tisserand_invariant" : "6.101",
        "epoch_osculation" : "2458000.5",
        "eccentricity" : ".2350911277276726",
        "semi_major_axis" : ".9838771398813511",
        "inclination" : "15.9622558307223",
        "ascending_node_longitude" : "198.8982962377699",
        "orbital_period" : "356.4591210030828",
        "perihelion_distance" : ".7525763535211671",
        "perihelion_argument" : "170.4121232971913",
        "aphelion_distance" : "1.215177926241535",
        "perihelion_time" : "2457989.509927865801",
        "mean_anomaly" : "11.09924177891153",
        "mean_motion" : "1.009933478450357",
        "equinox" : "J2000"
      }
    } ]
  }
}